{
  "type": "FeatureCollection",
  "features": [
    {
      "type": "Feature",
      "properties": {
        "norad_id": 33376,
        "name": "GALAXY 19 (G-19)",
        "group": "intelsat",
        "lat": -0.03358113731557195,
        "lon": -122.74103229812405,
        "alt_km": 35776.71014345576,
        "timestamp": "2025-12-12T16:50:32.815311+00:00",
        "meta_object_name": "GALAXY 19 (G-19)",
        "meta_object_id": "2008-045A",
        "meta_epoch": "2025-12-12T06:10:15.657888",
        "meta_mean_motion": 1.00269727,
        "meta_eccentricity": 0.00026272,
        "meta_inclination": 0.0173,
        "meta_ra_of_asc_node": 351.1534,
        "meta_arg_of_pericenter": 272.457,
        "meta_mean_anomaly": 173.1617,
        "meta_ephemeris_type": 0,
        "meta_classification_type": "U",
        "meta_norad_cat_id": 33376,
        "meta_element_set_no": 999,
        "meta_rev_at_epoch": 6302,
        "meta_bstar": 0,
        "meta_mean_motion_dot": 0,
        "meta_mean_motion_ddot": 0,
        "tle_line1": "1 33376U 08045A   25346.25712567  .00000000  00000+0  00000+0 0  9992",
        "tle_line2": "2 33376   0.0173 351.1534 0002627 272.4570 173.1617  1.00269727 63022"
      },
      "geometry": {
        "type": "Point",
        "coordinates": [
          -122.74103229812405,
          -0.03358113731557195
        ]
      }
    },
    {
      "type": "Feature",
      "properties": {
        "norad_id": 35493,
        "name": "FM-5",
        "group": "intelsat",
        "lat": -0.025116337177842233,
        "lon": -111.86211827543256,
        "alt_km": 35785.76715996557,
        "timestamp": "2025-12-12T16:50:32.815344+00:00",
        "meta_object_name": "FM-5",
        "meta_object_id": "2009-034A",
        "meta_epoch": "2025-12-11T23:22:27.924384",
        "meta_mean_motion": 1.00271483,
        "meta_eccentricity": 6.71e-05,
        "meta_inclination": 0.0165,
        "meta_ra_of_asc_node": 292.0867,
        "meta_arg_of_pericenter": 235.2397,
        "meta_mean_anomaly": 178.0732,
        "meta_ephemeris_type": 0,
        "meta_classification_type": "U",
        "meta_norad_cat_id": 35493,
        "meta_element_set_no": 999,
        "meta_rev_at_epoch": 4476,
        "meta_bstar": 0,
        "meta_mean_motion_dot": -1.91e-06,
        "meta_mean_motion_ddot": 0,
        "tle_line1": "1 35493U 09034A   25345.97393431 -.00000191  00000+0  00000+0 0  9998",
        "tle_line2": "2 35493   0.0165 292.0867 0000671 235.2397 178.0732  1.00271483 44762"
      },
      "geometry": {
        "type": "Point",
        "coordinates": [
          -111.86211827543256,
          -0.025116337177842233
        ]
      }
    },
    {
      "type": "Feature",
      "properties": {
        "norad_id": 36097,
        "name": "INTELSAT 14 (IS-14)",
        "group": "intelsat",
        "lat": -0.025144888455684668,
        "lon": -70.70782951204927,
        "alt_km": 35776.150148107474,
        "timestamp": "2025-12-12T16:50:32.815370+00:00",
        "meta_object_name": "INTELSAT 14 (IS-14)",
        "meta_object_id": "2009-064A",
        "meta_epoch": "2025-12-12T06:25:06.735648",
        "meta_mean_motion": 1.00272471,
        "meta_eccentricity": 0.00025152,
        "meta_inclination": 0.0139,
        "meta_ra_of_asc_node": 26.9642,
        "meta_arg_of_pericenter": 239.2791,
        "meta_mean_anomaly": 226.2559,
        "meta_ephemeris_type": 0,
        "meta_classification_type": "U",
        "meta_norad_cat_id": 36097,
        "meta_element_set_no": 999,
        "meta_rev_at_epoch": 5873,
        "meta_bstar": 0,
        "meta_mean_motion_dot": -2.63e-06,
        "meta_mean_motion_ddot": 0,
        "tle_line1": "1 36097U 09064A   25346.26743907 -.00000263  00000+0  00000+0 0  9992",
        "tle_line2": "2 36097   0.0139  26.9642 0002515 239.2791 226.2559  1.00272471 58733"
      },
      "geometry": {
        "type": "Point",
        "coordinates": [
          -70.70782951204927,
          -0.025144888455684668
        ]
      }
    },
    {
      "type": "Feature",
      "properties": {
        "norad_id": 36106,
        "name": "INTELSAT 15 (IS-15)",
        "group": "intelsat",
        "lat": 0.031244577969938354,
        "lon": 59.44029578229688,
        "alt_km": 35794.67987167173,
        "timestamp": "2025-12-12T16:50:32.815384+00:00",
        "meta_object_name": "INTELSAT 15 (IS-15)",
        "meta_object_id": "2009-067A",
        "meta_epoch": "2025-12-12T01:54:01.095840",
        "meta_mean_motion": 1.00272349,
        "meta_eccentricity": 0.00023524,
        "meta_inclination": 0.0211,
        "meta_ra_of_asc_node": 292.3297,
        "meta_arg_of_pericenter": 335.9709,
        "meta_mean_anomaly": 286.3858,
        "meta_ephemeris_type": 0,
        "meta_classification_type": "U",
        "meta_norad_cat_id": 36106,
        "meta_element_set_no": 999,
        "meta_rev_at_epoch": 3935,
        "meta_bstar": 0,
        "meta_mean_motion_dot": -1.76e-06,
        "meta_mean_motion_ddot": 0,
        "tle_line1": "1 36106U 09067A   25346.07917935 -.00000176  00000+0  00000+0 0  9992",
        "tle_line2": "2 36106   0.0211 292.3297 0002352 335.9709 286.3858  1.00272349 39352"
      },
      "geometry": {
        "type": "Point",
        "coordinates": [
          59.44029578229688,
          0.031244577969938354
        ]
      }
    },
    {
      "type": "Feature",
      "properties": {
        "norad_id": 36131,
        "name": "DIRECTV 12",
        "group": "intelsat",
        "lat": 0.016553354885687606,
        "lon": -128.4459816845522,
        "alt_km": 35787.500627851514,
        "timestamp": "2025-12-12T16:50:32.815397+00:00",
        "meta_object_name": "DIRECTV 12",
        "meta_object_id": "2009-075A",
        "meta_epoch": "2025-12-12T06:08:38.312736",
        "meta_mean_motion": 1.00272296,
        "meta_eccentricity": 5.614e-05,
        "meta_inclination": 0.0427,
        "meta_ra_of_asc_node": 132.0046,
        "meta_arg_of_pericenter": 230.7625,
        "meta_mean_anomaly": 67.8805,
        "meta_ephemeris_type": 0,
        "meta_classification_type": "U",
        "meta_norad_cat_id": 36131,
        "meta_element_set_no": 999,
        "meta_rev_at_epoch": 4467,
        "meta_bstar": 0,
        "meta_mean_motion_dot": -9.4e-07,
        "meta_mean_motion_ddot": 0,
        "tle_line1": "1 36131U 09075A   25346.25599899 -.00000094  00000+0  00000+0 0  9993",
        "tle_line2": "2 36131   0.0427 132.0046 0000561 230.7625  67.8805  1.00272296 44676"
      },
      "geometry": {
        "type": "Point",
        "coordinates": [
          -128.4459816845522,
          0.016553354885687606
        ]
      }
    },
    {
      "type": "Feature",
      "properties": {
        "norad_id": 36397,
        "name": "INTELSAT 16 (IS-16)",
        "group": "intelsat",
        "lat": -0.026490961538243867,
        "lon": -101.92222807848977,
        "alt_km": 35777.17831951734,
        "timestamp": "2025-12-12T16:50:32.815414+00:00",
        "meta_object_name": "INTELSAT 16 (IS-16)",
        "meta_object_id": "2010-006A",
        "meta_epoch": "2025-12-12T06:16:07.596192",
        "meta_mean_motion": 1.0027224,
        "meta_eccentricity": 0.00020928,
        "meta_inclination": 0.009,
        "meta_ra_of_asc_node": 331.8261,
        "meta_arg_of_pericenter": 291.3327,
        "meta_mean_anomaly": 195.8873,
        "meta_ephemeris_type": 0,
        "meta_classification_type": "U",
        "meta_norad_cat_id": 36397,
        "meta_element_set_no": 999,
        "meta_rev_at_epoch": 5778,
        "meta_bstar": 0,
        "meta_mean_motion_dot": -2.35e-06,
        "meta_mean_motion_ddot": 0,
        "tle_line1": "1 36397U 10006A   25346.26119903 -.00000235  00000+0  00000+0 0  9995",
        "tle_line2": "2 36397   0.0090 331.8261 0002092 291.3327 195.8873  1.00272240 57789"
      },
      "geometry": {
        "type": "Point",
        "coordinates": [
          -101.92222807848977,
          -0.026490961538243867
        ]
      }
    },
    {
      "type": "Feature",
      "properties": {
        "norad_id": 37185,
        "name": "XM-5",
        "group": "intelsat",
        "lat": -0.06119438857590545,
        "lon": -140.90242769645997,
        "alt_km": 35783.58436095857,
        "timestamp": "2025-12-12T16:50:32.815426+00:00",
        "meta_object_name": "XM-5",
        "meta_object_id": "2010-053A",
        "meta_epoch": "2025-12-12T03:46:38.737056",
        "meta_mean_motion": 1.00272664,
        "meta_eccentricity": 0.0001561,
        "meta_inclination": 0.0596,
        "meta_ra_of_asc_node": 272.3532,
        "meta_arg_of_pericenter": 236.8409,
        "meta_mean_anomaly": 233.3792,
        "meta_ephemeris_type": 0,
        "meta_classification_type": "U",
        "meta_norad_cat_id": 37185,
        "meta_element_set_no": 999,
        "meta_rev_at_epoch": 5560,
        "meta_bstar": 0,
        "meta_mean_motion_dot": -1.4e-07,
        "meta_mean_motion_ddot": 0,
        "tle_line1": "1 37185U 10053A   25346.15739279 -.00000014  00000+0  00000+0 0  9990",
        "tle_line2": "2 37185   0.0596 272.3532 0001561 236.8409 233.3792  1.00272664 55608"
      },
      "geometry": {
        "type": "Point",
        "coordinates": [
          -140.90242769645997,
          -0.06119438857590545
        ]
      }
    }
  ]
}